[{"OBJECT_NAME":"STARLINK-31137","OBJECT_ID":"2023-211V","EPOCH":"2026-03-09T02:28:04.097280","MEAN_MOTION":15.27567968,"ECCENTRICITY":7.632e-5,"INCLINATION":43.0029,"RA_OF_ASC_NODE":88.6918,"ARG_OF_PERICENTER":265.5034,"MEAN_ANOMALY":94.573,"EPHEMERIS_TYPE":0,"CLASSIFICATION_TYPE":"U","NORAD_CAT_ID":58686,"ELEMENT_SET_NO":999,"REV_AT_EPOCH":12237,"BSTAR":-3.1195087e-5,"MEAN_MOTION_DOT":-1.12e-5,"MEAN_MOTION_DDOT":0},{"OBJECT_NAME":"TRANSPORTER-1 OBJECT AA","OBJECT_ID":"2021-006AA","EPOCH":"2026-03-09T22:58:14.761920","MEAN_MOTION":15.29982294,"ECCENTRICITY":0.00086604,"INCLINATION":97.2381,"RA_OF_ASC_NODE":112.457,"ARG_OF_PERICENTER":185.709,"MEAN_ANOMALY":174.4054,"EPHEMERIS_TYPE":0,"CLASSIFICATION_TYPE":"U","NORAD_CAT_ID":47437,"ELEMENT_SET_NO":999,"REV_AT_EPOCH":28414,"BSTAR":0.0002197941,"MEAN_MOTION_DOT":6.312e-5,"MEAN_MOTION_DDOT":0}]
